{"type": "FeatureCollection","features": [{"type": "Feature", "geometry": {"type":"Point","coordinates":[9.1736541,47.6569271]}, "properties": {"osm_id": 571499032, "osm_type": "nodes", "amenity": "pub", "name": "Globetrotter"}},{"type": "Feature", "geometry": {"type":"Point","coordinates":[9.1709224,47.6583016]}, "properties": {"osm_id": 4640534574, "osm_type": "nodes", "amenity": "restaurant", "name": "Burro Burro"}},{"type": "Feature", "geometry": {"type":"Point","coordinates":[9.1760485,47.6579161]}, "properties": {"osm_id": 5775304793, "osm_type": "nodes", "amenity": "restaurant", "name": "Ikram's"}},{"type": "Feature", "geometry": {"type":"Point","coordinates":[9.1740598,47.657191]}, "properties": {"osm_id": 462190742, "osm_type": "nodes", "amenity": "restaurant", "name": "Cengos Steakhouse"}},{"type": "Feature", "geometry": {"type":"Point","coordinates":[9.1728603,47.6586004]}, "properties": {"osm_id": 12496295518, "osm_type": "nodes", "amenity": "restaurant", "name": "Noa Konstanz"}},{"type": "Feature", "geometry": {"type":"Point","coordinates":[9.171369,47.6591705]}, "properties": {"osm_id": 571515643, "osm_type": "nodes", "amenity": "fast_food", "name": "Streetfood Grill"}},{"type": "Feature", "geometry": {"type":"Point","coordinates":[9.1740304,47.6605744]}, "properties": {"osm_id": 5342997496, "osm_type": "nodes", "amenity": "restaurant", "name": "Oshiki Japanese Dining"}},{"type": "Feature", "geometry": {"type":"Point","coordinates":[9.1745536,47.662834]}, "properties": {"osm_id": 4530744926, "osm_type": "nodes", "amenity": "restaurant", "name": "Stephanskeller"}},{"type": "Feature", "geometry": {"type":"Point","coordinates":[9.174772,47.6595407]}, "properties": {"osm_id": 571494695, "osm_type": "nodes", "amenity": "cafe", "name": "Rosgarten-Café"}},{"type": "Feature", "geometry": {"type":"Point","coordinates":[9.1749493,47.6576489]}, "properties": {"osm_id": 10816093290, "osm_type": "nodes", "amenity": "fast_food", "name": "Keki Chicken"}},{"type": "Feature", "geometry": {"type":"Point","coordinates":[9.1752487,47.6616044]}, "properties": {"osm_id": 1999369301, "osm_type": "nodes", "amenity": "restaurant", "name": "Tavernaa Pan"}},{"type": "Feature", "geometry": {"type":"Point","coordinates":[9.1752089,47.665559]}, "properties": {"osm_id": 12640811337, "osm_type": "nodes", "amenity": "bar", "name": "Jakobinerkeller"}},{"type": "Feature", "geometry": {"type":"Point","coordinates":[9.171256,47.6655285]}, "properties": {"osm_id": 3066347576, "osm_type": "nodes", "amenity": "restaurant", "name": "Delphi"}},{"type": "Feature", "geometry": {"type":"Point","coordinates":[9.178403,47.6608396]}, "properties": {"osm_id": 473095596, "osm_type": "nodes", "amenity": "restaurant", "name": "Konzil Konstanz Restaurant"}},{"type": "Feature", "geometry": {"type":"Point","coordinates":[9.1646158,47.6651597]}, "properties": {"osm_id": 5046160240, "osm_type": "nodes", "amenity": "cafe", "name": "Auszeit"}},{"type": "Feature", "geometry": {"type":"Point","coordinates":[9.1731571,47.6559034]}, "properties": {"osm_id": 447341766, "osm_type": "nodes", "amenity": "fast_food", "name": "Coban Imbiss am Zoll"}},{"type": "Feature", "geometry": {"type":"Point","coordinates":[9.1754861,47.658817]}, "properties": {"osm_id": 1426837191, "osm_type": "nodes", "amenity": "restaurant", "name": "ess|bar"}},{"type": "Feature", "geometry": {"type":"Point","coordinates":[9.1755932,47.6579965]}, "properties": {"osm_id": 2452772038, "osm_type": "nodes", "amenity": "restaurant", "name": "O Sole Mio"}},{"type": "Feature", "geometry": {"type":"Point","coordinates":[9.1707682,47.6669887]}, "properties": {"osm_id": 11252005367, "osm_type": "nodes", "amenity": "cafe", "name": "Café Endlicht"}},{"type": "Feature", "geometry": {"type":"Point","coordinates":[9.171002,47.6655877]}, "properties": {"osm_id": 3066345432, "osm_type": "nodes", "amenity": "cafe", "name": "Stadtkind"}},{"type": "Feature", "geometry": {"type":"Point","coordinates":[9.1709177,47.658117]}, "properties": {"osm_id": 6564917629, "osm_type": "nodes", "amenity": "restaurant", "name": "No. 5"}},{"type": "Feature", "geometry": {"type":"Point","coordinates":[9.1716795,47.6591494]}, "properties": {"osm_id": 571516508, "osm_type": "nodes", "amenity": "cafe", "name": "Eiszeit"}},{"type": "Feature", "geometry": {"type":"Point","coordinates":[9.1774457,47.6546576]}, "properties": {"osm_id": 8191222386, "osm_type": "nodes", "amenity": "restaurant", "name": "Pepaaa & Green"}},{"type": "Feature", "geometry": {"type":"Point","coordinates":[9.1779908,47.6589731]}, "properties": {"osm_id": 6533442142, "osm_type": "nodes", "amenity": "restaurant", "name": "Hafenhalle"}},{"type": "Feature", "geometry": {"type":"Point","coordinates":[9.1749554,47.663675]}, "properties": {"osm_id": 445061152, "osm_type": "nodes", "amenity": "restaurant", "name": "Münsterhof"}},{"type": "Feature", "geometry": {"type":"Point","coordinates":[9.1723426,47.6665976]}, "properties": {"osm_id": 357303216, "osm_type": "nodes", "amenity": "fast_food", "name": "Ninos (Pizza)"}},{"type": "Feature", "geometry": {"type":"Point","coordinates":[9.1746279,47.6574103]}, "properties": {"osm_id": 571498854, "osm_type": "nodes", "amenity": "fast_food", "name": "Ali Baba Imbiss"}},{"type": "Feature", "geometry": {"type":"Point","coordinates":[9.1736605,47.6609353]}, "properties": {"osm_id": 571520945, "osm_type": "nodes", "amenity": "fast_food", "name": "long food"}},{"type": "Feature", "geometry": {"type":"Point","coordinates":[9.1758054,47.6642346]}, "properties": {"osm_id": 4654377524, "osm_type": "nodes", "amenity": "restaurant", "name": "Dom"}},{"type": "Feature", "geometry": {"type":"Point","coordinates":[9.1766318,47.6610113]}, "properties": {"osm_id": 6312383678, "osm_type": "nodes", "amenity": "restaurant", "name": "Incontro Laugele"}},{"type": "Feature", "geometry": {"type":"Point","coordinates":[9.1753706,47.6604024]}, "properties": {"osm_id": 5171820125, "osm_type": "nodes", "amenity": "restaurant", "name": "China-Restaurant"}},{"type": "Feature", "geometry": {"type":"Point","coordinates":[9.1733477,47.6615523]}, "properties": {"osm_id": 1481116178, "osm_type": "nodes", "amenity": "cafe", "name": "Kaffeerösterei Konstanz"}},{"type": "Feature", "geometry": {"type":"Point","coordinates":[9.1703444,47.6584406]}, "properties": {"osm_id": 2053568157, "osm_type": "nodes", "amenity": "pub", "name": "Schnetztor Stüble"}},{"type": "Feature", "geometry": {"type":"Point","coordinates":[9.1727033,47.6581249]}, "properties": {"osm_id": 11235179034, "osm_type": "nodes", "amenity": "restaurant", "name": "Burgerheart"}},{"type": "Feature", "geometry": {"type":"Point","coordinates":[9.167972,47.6585035]}, "properties": {"osm_id": 1608011138, "osm_type": "nodes", "amenity": "restaurant", "name": "Miss Saigon"}},{"type": "Feature", "geometry": {"type":"Point","coordinates":[9.1723306,47.660771]}, "properties": {"osm_id": 11278888667, "osm_type": "nodes", "amenity": "bar", "name": "Casba"}},{"type": "Feature", "geometry": {"type":"Point","coordinates":[9.1729231,47.6605103]}, "properties": {"osm_id": 571520711, "osm_type": "nodes", "amenity": "restaurant", "name": "Untere Sonne"}},{"type": "Feature", "geometry": {"type":"Point","coordinates":[9.18072,47.657025]}, "properties": {"osm_id": 5222969422, "osm_type": "nodes", "amenity": "restaurant", "name": "Sea Life Konstanz Bistro"}},{"type": "Feature", "geometry": {"type":"Point","coordinates":[9.1751146,47.6655337]}, "properties": {"osm_id": 2527911953, "osm_type": "nodes", "amenity": "bar", "name": "Weinteufele"}},{"type": "Feature", "geometry": {"type":"Point","coordinates":[9.1722116,47.6584519]}, "properties": {"osm_id": 571502130, "osm_type": "nodes", "amenity": "restaurant", "name": "Hexenküche Steakhaus"}},{"type": "Feature", "geometry": {"type":"Point","coordinates":[9.1751236,47.6585255]}, "properties": {"osm_id": 4890111935, "osm_type": "nodes", "amenity": "restaurant", "name": "Karma"}},{"type": "Feature", "geometry": {"type":"Point","coordinates":[9.1763217,47.6568266]}, "properties": {"osm_id": 1118445808, "osm_type": "nodes", "amenity": "fast_food", "name": "Thang Long"}},{"type": "Feature", "geometry": {"type":"Point","coordinates":[9.1765771,47.6573397]}, "properties": {"osm_id": 12132066217, "osm_type": "nodes", "amenity": "bar", "name": "Glorious Garden Rooftop Bar"}},{"type": "Feature", "geometry": {"type":"Point","coordinates":[9.1758011,47.664211]}, "properties": {"osm_id": 11313811517, "osm_type": "nodes", "amenity": "restaurant", "name": "Dom"}},{"type": "Feature", "geometry": {"type":"Point","coordinates":[9.1768059,47.6594449]}, "properties": {"osm_id": 338658878, "osm_type": "nodes", "amenity": "fast_food", "name": "McDonald's"}},{"type": "Feature", "geometry": {"type":"Point","coordinates":[9.1708166,47.658816]}, "properties": {"osm_id": 571515475, "osm_type": "nodes", "amenity": "restaurant", "name": "Café Restaurant TURM"}},{"type": "Feature", "geometry": {"type":"Point","coordinates":[9.1752368,47.6601604]}, "properties": {"osm_id": 599295914, "osm_type": "nodes", "amenity": "restaurant", "name": "Casablanca"}},{"type": "Feature", "geometry": {"type":"Point","coordinates":[9.1768252,47.6614878]}, "properties": {"osm_id": 3325192561, "osm_type": "nodes", "amenity": "restaurant", "name": "Chez Léon"}},{"type": "Feature", "geometry": {"type":"Point","coordinates":[9.1723583,47.6614358]}, "properties": {"osm_id": 6991104969, "osm_type": "nodes", "amenity": "restaurant", "name": "Pinocchio"}},{"type": "Feature", "geometry": {"type":"Point","coordinates":[9.1751148,47.6624865]}, "properties": {"osm_id": 5982481085, "osm_type": "nodes", "amenity": "restaurant", "name": "Heinrich"}},{"type": "Feature", "geometry": {"type":"Point","coordinates":[9.1705561,47.6584394]}, "properties": {"osm_id": 571515317, "osm_type": "nodes", "amenity": "fast_food", "name": "Zab e le Restaurant"}},{"type": "Feature", "geometry": {"type":"Point","coordinates":[9.1735478,47.6597756]}, "properties": {"osm_id": 12484905103, "osm_type": "nodes", "amenity": "restaurant", "name": "Pizzeria Mamma Mia"}},{"type": "Feature", "geometry": {"type":"Point","coordinates":[9.1763473,47.6575103]}, "properties": {"osm_id": 12132066216, "osm_type": "nodes", "amenity": "restaurant", "name": "Glorious Bastards"}},{"type": "Feature", "geometry": {"type":"Point","coordinates":[9.1718965,47.6571877]}, "properties": {"osm_id": 2054936085, "osm_type": "nodes", "amenity": "pub", "name": "Old Mary's Pub"}},{"type": "Feature", "geometry": {"type":"Point","coordinates":[9.1725847,47.6589592]}, "properties": {"osm_id": 6002841054, "osm_type": "nodes", "amenity": "restaurant", "name": "Gohan"}},{"type": "Feature", "geometry": {"type":"Point","coordinates":[9.1728108,47.6574929]}, "properties": {"osm_id": 6133564485, "osm_type": "nodes", "amenity": "restaurant", "name": "Beyzade"}},{"type": "Feature", "geometry": {"type":"Point","coordinates":[9.1733696,47.6567742]}, "properties": {"osm_id": 5853812885, "osm_type": "nodes", "amenity": "fast_food", "name": "Kantaro"}},{"type": "Feature", "geometry": {"type":"Point","coordinates":[9.1736731,47.6587385]}, "properties": {"osm_id": 6312383888, "osm_type": "nodes", "amenity": "cafe", "name": "Milk & Honey"}},{"type": "Feature", "geometry": {"type":"Point","coordinates":[9.1734283,47.6597864]}, "properties": {"osm_id": 5913928047, "osm_type": "nodes", "amenity": "cafe", "name": "Fresh Korner"}},{"type": "Feature", "geometry": {"type":"Point","coordinates":[9.1732545,47.6587816]}, "properties": {"osm_id": 6002841064, "osm_type": "nodes", "amenity": "bar", "name": "King Schultz"}},{"type": "Feature", "geometry": {"type":"Point","coordinates":[9.1731787,47.6586022]}, "properties": {"osm_id": 980753172, "osm_type": "nodes", "amenity": "restaurant", "name": "San Martino Ristorante - Lounge - Bar"}},{"type": "Feature", "geometry": {"type":"Point","coordinates":[9.1730597,47.6584802]}, "properties": {"osm_id": 357286743, "osm_type": "nodes", "amenity": "restaurant", "name": "Il Boccone"}},{"type": "Feature", "geometry": {"type":"Point","coordinates":[9.1730123,47.6604056]}, "properties": {"osm_id": 5885490592, "osm_type": "nodes", "amenity": "bar", "name": "Manhattan Bar"}},{"type": "Feature", "geometry": {"type":"Point","coordinates":[9.1722909,47.6591402]}, "properties": {"osm_id": 6002788787, "osm_type": "nodes", "amenity": "cafe", "name": "Hippo"}},{"type": "Feature", "geometry": {"type":"Point","coordinates":[9.1699332,47.6563535]}, "properties": {"osm_id": 6293820193, "osm_type": "nodes", "amenity": "fast_food", "name": "Sultans"}},{"type": "Feature", "geometry": {"type":"Point","coordinates":[9.171394,47.6663452]}, "properties": {"osm_id": 4885280657, "osm_type": "nodes", "amenity": "restaurant", "name": "Bangkok"}},{"type": "Feature", "geometry": {"type":"Point","coordinates":[9.1702826,47.6684175]}, "properties": {"osm_id": 357303816, "osm_type": "nodes", "amenity": "bar", "name": "Strandbar"}},{"type": "Feature", "geometry": {"type":"Point","coordinates":[9.1754225,47.6583619]}, "properties": {"osm_id": 571496108, "osm_type": "nodes", "amenity": "restaurant", "name": "SUPPENGRÜN soup & salad BAR"}},{"type": "Feature", "geometry": {"type":"Point","coordinates":[9.1747276,47.6578733]}, "properties": {"osm_id": 5287595317, "osm_type": "nodes", "amenity": "restaurant", "name": "Goldener Sternen"}},{"type": "Feature", "geometry": {"type":"Point","coordinates":[9.1706232,47.657903]}, "properties": {"osm_id": 4640534573, "osm_type": "nodes", "amenity": "cafe", "name": "Eiscafé Grezzo"}},{"type": "Feature", "geometry": {"type":"Point","coordinates":[9.1712144,47.6585418]}, "properties": {"osm_id": 305445226, "osm_type": "nodes", "amenity": "bar", "name": "Klimperkasten"}},{"type": "Feature", "geometry": {"type":"Point","coordinates":[9.1761288,47.6589458]}, "properties": {"osm_id": 1426833660, "osm_type": "nodes", "amenity": "bar", "name": "Khibar"}},{"type": "Feature", "geometry": {"type":"Point","coordinates":[9.1762861,47.6589474]}, "properties": {"osm_id": 12155996426, "osm_type": "nodes", "amenity": "restaurant", "name": "Rossini"}},{"type": "Feature", "geometry": {"type":"Point","coordinates":[9.1740921,47.6586885]}, "properties": {"osm_id": 11236631227, "osm_type": "nodes", "amenity": "cafe", "name": "Paradiso"}},{"type": "Feature", "geometry": {"type":"Point","coordinates":[9.1657644,47.6636916]}, "properties": {"osm_id": 7989386385, "osm_type": "nodes", "amenity": "bar", "name": "Vetter Adler"}},{"type": "Feature", "geometry": {"type":"Point","coordinates":[9.1807986,47.6607832]}, "properties": {"osm_id": 6199655785, "osm_type": "nodes", "amenity": "bar", "name": "Historische Fähre Konstanz"}},{"type": "Feature", "geometry": {"type":"Point","coordinates":[9.1728487,47.6663639]}, "properties": {"osm_id": 7746444285, "osm_type": "nodes", "amenity": "fast_food", "name": "See Kebab Haus"}},{"type": "Feature", "geometry": {"type":"Point","coordinates":[9.1747712,47.6648013]}, "properties": {"osm_id": 2327289740, "osm_type": "nodes", "amenity": "restaurant", "name": "Costa del Sol"}},{"type": "Feature", "geometry": {"type":"Point","coordinates":[9.1748936,47.6650351]}, "properties": {"osm_id": 1372945202, "osm_type": "nodes", "amenity": "bar", "name": "Hintertürle"}},{"type": "Feature", "geometry": {"type":"Point","coordinates":[9.1750578,47.6648791]}, "properties": {"osm_id": 413890873, "osm_type": "nodes", "amenity": "restaurant", "name": "Brauhaus Joh. Albrecht"}},{"type": "Feature", "geometry": {"type":"Point","coordinates":[9.1756398,47.6625331]}, "properties": {"osm_id": 2275997820, "osm_type": "nodes", "amenity": "restaurant", "name": "Sedir"}},{"type": "Feature", "geometry": {"type":"Point","coordinates":[9.1757968,47.6619162]}, "properties": {"osm_id": 4559108694, "osm_type": "nodes", "amenity": "cafe", "name": "dolce vita"}},{"type": "Feature", "geometry": {"type":"Point","coordinates":[9.1759201,47.6622855]}, "properties": {"osm_id": 2068123409, "osm_type": "nodes", "amenity": "restaurant", "name": "Pastis"}},{"type": "Feature", "geometry": {"type":"Point","coordinates":[9.1771066,47.6618975]}, "properties": {"osm_id": 899511458, "osm_type": "nodes", "amenity": "bar", "name": "pfiff"}},{"type": "Feature", "geometry": {"type":"Point","coordinates":[9.1763985,47.661913]}, "properties": {"osm_id": 10716177542, "osm_type": "nodes", "amenity": "restaurant", "name": "Zum guten Hirten"}},{"type": "Feature", "geometry": {"type":"Point","coordinates":[9.1763917,47.6622512]}, "properties": {"osm_id": 1122336216, "osm_type": "nodes", "amenity": "restaurant", "name": "Don Alfredo"}},{"type": "Feature", "geometry": {"type":"Point","coordinates":[9.1759781,47.6615466]}, "properties": {"osm_id": 1999473031, "osm_type": "nodes", "amenity": "restaurant", "name": "Roter Gugelhan"}},{"type": "Feature", "geometry": {"type":"Point","coordinates":[9.1764529,47.6609514]}, "properties": {"osm_id": 10693640793, "osm_type": "nodes", "amenity": "restaurant", "name": "Goodways Coffee"}},{"type": "Feature", "geometry": {"type":"Point","coordinates":[9.1771955,47.6619039]}, "properties": {"osm_id": 311090443, "osm_type": "nodes", "amenity": "restaurant", "name": "Seekuh"}},{"type": "Feature", "geometry": {"type":"Point","coordinates":[9.1710088,47.6578221]}, "properties": {"osm_id": 4610363492, "osm_type": "nodes", "amenity": "cafe", "name": "Süss & Salzig"}},{"type": "Feature", "geometry": {"type":"Point","coordinates":[9.17094,47.6580383]}, "properties": {"osm_id": 2054889250, "osm_type": "nodes", "amenity": "restaurant", "name": "Vietnam China Wok"}},{"type": "Feature", "geometry": {"type":"Point","coordinates":[9.1717826,47.6598131]}, "properties": {"osm_id": 6002788790, "osm_type": "nodes", "amenity": "restaurant", "name": "Le Sud"}},{"type": "Feature", "geometry": {"type":"Point","coordinates":[9.1738467,47.6595416]}, "properties": {"osm_id": 1615670199, "osm_type": "nodes", "amenity": "restaurant", "name": "Goia"}},{"type": "Feature", "geometry": {"type":"Point","coordinates":[9.1753051,47.6580306]}, "properties": {"osm_id": 458894895, "osm_type": "nodes", "amenity": "fast_food", "name": "Subway"}},{"type": "Feature", "geometry": {"type":"Point","coordinates":[9.1753461,47.6577254]}, "properties": {"osm_id": 571498235, "osm_type": "nodes", "amenity": "pub", "name": "Stable"}},{"type": "Feature", "geometry": {"type":"Point","coordinates":[9.1745997,47.659355]}, "properties": {"osm_id": 11773413361, "osm_type": "nodes", "amenity": "fast_food", "name": "Otto Müller"}},{"type": "Feature", "geometry": {"type":"Point","coordinates":[9.1743651,47.659181]}, "properties": {"osm_id": 7002997087, "osm_type": "nodes", "amenity": "restaurant", "name": "BOX To Go"}},{"type": "Feature", "geometry": {"type":"Point","coordinates":[9.1747948,47.6575011]}, "properties": {"osm_id": 485855568, "osm_type": "nodes", "amenity": "restaurant", "name": "Tolle Knolle"}},{"type": "Feature", "geometry": {"type":"Point","coordinates":[9.1741979,47.6571303]}, "properties": {"osm_id": 9856291444, "osm_type": "nodes", "amenity": "cafe", "name": "Seegold"}},{"type": "Feature", "geometry": {"type":"Point","coordinates":[9.1753777,47.6590443]}, "properties": {"osm_id": 571496062, "osm_type": "nodes", "amenity": "restaurant", "name": "Umami"}},{"type": "Feature", "geometry": {"type":"Point","coordinates":[9.1785148,47.6594895]}, "properties": {"osm_id": 355871193, "osm_type": "nodes", "amenity": "restaurant", "name": "Hafenmeisterei"}},{"type": "Feature", "geometry": {"type":"Point","coordinates":[9.1635339,47.6690788]}, "properties": {"osm_id": 2425615868, "osm_type": "nodes", "amenity": "restaurant", "name": "Cote d'Azur"}},{"type": "Feature", "geometry": {"type":"Point","coordinates":[9.1737691,47.6626606]}, "properties": {"osm_id": 7030778781, "osm_type": "nodes", "amenity": "cafe", "name": "Café Bloggers"}},{"type": "Feature", "geometry": {"type":"Point","coordinates":[9.1730958,47.6604842]}, "properties": {"osm_id": 2701233150, "osm_type": "nodes", "amenity": "restaurant", "name": "Café Antik"}},{"type": "Feature", "geometry": {"type":"Point","coordinates":[9.1744953,47.6642006]}, "properties": {"osm_id": 5200592134, "osm_type": "nodes", "amenity": "cafe", "name": "Cafe N° elf"}},{"type": "Feature", "geometry": {"type":"Point","coordinates":[9.1751287,47.6641946]}, "properties": {"osm_id": 599295916, "osm_type": "nodes", "amenity": "bar", "name": "Blauer Engel"}},{"type": "Feature", "geometry": {"type":"Point","coordinates":[9.1753308,47.6618098]}, "properties": {"osm_id": 4594879909, "osm_type": "nodes", "amenity": "bar", "name": "Bierstube zur steinernen Kugel"}},{"type": "Feature", "geometry": {"type":"Point","coordinates":[9.1748446,47.6611757]}, "properties": {"osm_id": 11141142991, "osm_type": "nodes", "amenity": "cafe", "name": "helga"}},{"type": "Feature", "geometry": {"type":"Point","coordinates":[9.1752701,47.6637826]}, "properties": {"osm_id": 9783460090, "osm_type": "nodes", "amenity": "restaurant", "name": "Esme"}},{"type": "Feature", "geometry": {"type":"Point","coordinates":[9.1749697,47.6618529]}, "properties": {"osm_id": 1911774346, "osm_type": "nodes", "amenity": "restaurant", "name": "Good Rice"}},{"type": "Feature", "geometry": {"type":"Point","coordinates":[9.1750588,47.6631278]}, "properties": {"osm_id": 305441188, "osm_type": "nodes", "amenity": "restaurant", "name": "Restaurant Wessenberg"}},{"type": "Feature", "geometry": {"type":"Point","coordinates":[9.1751058,47.6628088]}, "properties": {"osm_id": 5296117060, "osm_type": "nodes", "amenity": "fast_food", "name": "Kervan"}},{"type": "Feature", "geometry": {"type":"Point","coordinates":[9.1741147,47.661292]}, "properties": {"osm_id": 305441221, "osm_type": "nodes", "amenity": "cafe", "name": "Voglhaus"}},{"type": "Feature", "geometry": {"type":"Point","coordinates":[9.1765148,47.6608538]}, "properties": {"osm_id": 430533689, "osm_type": "nodes", "amenity": "cafe", "name": "Pane e Amore"}},{"type": "Feature", "geometry": {"type":"Point","coordinates":[9.1774039,47.6599711]}, "properties": {"osm_id": 1118445809, "osm_type": "nodes", "amenity": "fast_food", "name": "Bahnhof Kebab"}},{"type": "Feature", "geometry": {"type":"Point","coordinates":[9.1766861,47.6589811]}, "properties": {"osm_id": 6410927485, "osm_type": "nodes", "amenity": "restaurant", "name": "Brasserie Ignaz"}},{"type": "Feature", "geometry": {"type":"Point","coordinates":[9.1764544,47.6566826]}, "properties": {"osm_id": 305445188, "osm_type": "nodes", "amenity": "restaurant", "name": "Deli"}},{"type": "Feature", "geometry": {"type":"Point","coordinates":[9.1775111,47.6602384]}, "properties": {"osm_id": 4116061810, "osm_type": "nodes", "amenity": "restaurant", "name": "Konstanzer Bürgerstuben"}},{"type": "Feature", "geometry": {"type":"Point","coordinates":[9.1761946,47.6601882]}, "properties": {"osm_id": 5407494051, "osm_type": "nodes", "amenity": "fast_food", "name": "M29"}},{"type": "Feature", "geometry": {"type":"Point","coordinates":[9.1766409,47.6598768]}, "properties": {"osm_id": 9855932028, "osm_type": "nodes", "amenity": "restaurant", "name": "Hans im Glück"}},{"type": "Feature", "geometry": {"type":"Point","coordinates":[9.1770248,47.6586007]}, "properties": {"osm_id": 7259100427, "osm_type": "nodes", "amenity": "cafe", "name": "Coffee Fellows"}},{"type": "Feature", "geometry": {"type":"Point","coordinates":[9.1767125,47.6607213]}, "properties": {"osm_id": 6312382949, "osm_type": "nodes", "amenity": "restaurant", "name": "Brasserie Colette Tim Raue"}},{"type": "Feature", "geometry": {"type":"Point","coordinates":[9.175828,47.6642878]}, "properties": {"osm_id": 311139897, "osm_type": "nodes", "amenity": "restaurant", "name": "Meera"}},{"type": "Feature", "geometry": {"type":"Point","coordinates":[9.1720536,47.6608435]}, "properties": {"osm_id": 4177285146, "osm_type": "nodes", "amenity": "restaurant", "name": "Akropolis"}},{"type": "Feature", "geometry": {"type":"Point","coordinates":[9.1728223,47.6599498]}, "properties": {"osm_id": 5780750639, "osm_type": "nodes", "amenity": "bar", "name": "Blue Door"}},{"type": "Feature", "geometry": {"type":"Point","coordinates":[9.1754336,47.6615484]}, "properties": {"osm_id": 1999476353, "osm_type": "nodes", "amenity": "pub", "name": "Weinkellerei Fritz"}},{"type": "Feature", "geometry": {"type":"Point","coordinates":[9.1746318,47.6599527]}, "properties": {"osm_id": 473097837, "osm_type": "nodes", "amenity": "fast_food", "name": "Nordsee"}},{"type": "Feature", "geometry": {"type":"Point","coordinates":[9.1726063,47.6599511]}, "properties": {"osm_id": 6744299874, "osm_type": "nodes", "amenity": "bar", "name": "Shotz"}},{"type": "Feature", "geometry": {"type":"Point","coordinates":[9.1715549,47.6600602]}, "properties": {"osm_id": 7837885785, "osm_type": "nodes", "amenity": "restaurant", "name": "IUMU noodlebar"}},{"type": "Feature", "geometry": {"type":"Point","coordinates":[9.1728521,47.6605453]}, "properties": {"osm_id": 4177285147, "osm_type": "nodes", "amenity": "pub", "name": "Backstage Musikcafé"}},{"type": "Feature", "geometry": {"type":"Point","coordinates":[9.1698739,47.6562948]}, "properties": {"osm_id": 5171820123, "osm_type": "nodes", "amenity": "fast_food", "name": "Asia Wok Gourmet"}},{"type": "Feature", "geometry": {"type":"Point","coordinates":[9.1699049,47.6563246]}, "properties": {"osm_id": 6293796237, "osm_type": "nodes", "amenity": "fast_food", "name": "Kebap Pizza House"}},{"type": "Feature", "geometry": {"type":"Point","coordinates":[9.1698996,47.658444]}, "properties": {"osm_id": 2053568204, "osm_type": "nodes", "amenity": "pub", "name": "Schweizer Eck"}},{"type": "Feature", "geometry": {"type":"Point","coordinates":[9.1709688,47.6579653]}, "properties": {"osm_id": 2054912913, "osm_type": "nodes", "amenity": "cafe", "name": "Coffee Fritz"}},{"type": "Feature", "geometry": {"type":"Point","coordinates":[9.1650405,47.6603117]}, "properties": {"osm_id": 4366938119, "osm_type": "nodes", "amenity": "cafe", "name": "Café Mondial Konstanz e.V."}},{"type": "Feature", "geometry": {"type":"Point","coordinates":[9.1756807,47.6646327]}, "properties": {"osm_id": 1944222135, "osm_type": "nodes", "amenity": "pub", "name": "Weinglöckle"}},{"type": "Feature", "geometry": {"type":"Point","coordinates":[9.1760183,47.6646764]}, "properties": {"osm_id": 3368246017, "osm_type": "nodes", "amenity": "restaurant", "name": "Batavia Bar"}},{"type": "Feature", "geometry": {"type":"Point","coordinates":[9.1747802,47.6645637]}, "properties": {"osm_id": 7832284606, "osm_type": "nodes", "amenity": "cafe", "name": "Kaffee Blende 8"}},{"type": "Feature", "geometry": {"type":"Point","coordinates":[9.1747581,47.6650054]}, "properties": {"osm_id": 445066408, "osm_type": "nodes", "amenity": "bar", "name": "Heimat"}},{"type": "Feature", "geometry": {"type":"Point","coordinates":[9.1738573,47.6658254]}, "properties": {"osm_id": 11975746333, "osm_type": "nodes", "amenity": "restaurant", "name": "Chu Minh"}},{"type": "Feature", "geometry": {"type":"Point","coordinates":[9.1766133,47.6647718]}, "properties": {"osm_id": 6680192585, "osm_type": "nodes", "amenity": "pub", "name": "Spitalkellerei Besen"}},{"type": "Feature", "geometry": {"type":"Point","coordinates":[9.1762892,47.6644656]}, "properties": {"osm_id": 2798300822, "osm_type": "nodes", "amenity": "restaurant", "name": "Zur Wendelgard"}},{"type": "Feature", "geometry": {"type":"Point","coordinates":[9.1757838,47.6661253]}, "properties": {"osm_id": 445066409, "osm_type": "nodes", "amenity": "restaurant", "name": "La Bodega Tapasbar"}},{"type": "Feature", "geometry": {"type":"Point","coordinates":[9.1759836,47.6655493]}, "properties": {"osm_id": 1402070441, "osm_type": "nodes", "amenity": "bar", "name": "Franz Fritz Weinstube"}},{"type": "Feature", "geometry": {"type":"Point","coordinates":[9.1759941,47.6646836]}, "properties": {"osm_id": 3368246016, "osm_type": "nodes", "amenity": "restaurant", "name": "Doppio"}},{"type": "Feature", "geometry": {"type":"Point","coordinates":[9.161665,47.6689334]}, "properties": {"osm_id": 357278585, "osm_type": "nodes", "amenity": "restaurant", "name": "Le Cèdre"}},{"type": "Feature", "geometry": {"type":"Point","coordinates":[9.1736884,47.6579319]}, "properties": {"osm_id": 457564021, "osm_type": "nodes", "amenity": "restaurant", "name": "Bo Dai Ko - Sushihaus"}},{"type": "Feature", "geometry": {"type":"Point","coordinates":[9.1765093,47.6565474]}, "properties": {"osm_id": 1118445810, "osm_type": "nodes", "amenity": "fast_food", "name": "Thang Long"}},{"type": "Feature", "geometry": {"type":"Point","coordinates":[9.172435,47.6575728]}, "properties": {"osm_id": 571500250, "osm_type": "nodes", "amenity": "pub", "name": "The Craic Irish Pub"}},{"type": "Feature", "geometry": {"type":"Polygon","coordinates":[[[9.174105,47.6575598],[9.1741203,47.6575455],[9.1741582,47.6575071],[9.1743674,47.6576039],[9.1743073,47.6576611],[9.174105,47.6575598]]]}, "properties": {"osm_id": 550272429, "osm_type": "ways_poly", "amenity": "restaurant", "name": "The Tonic"}},{"type": "Feature", "geometry": {"type":"Polygon","coordinates":[[[9.1736503,47.6567788],[9.1737482,47.6566873],[9.1738075,47.656715],[9.1737996,47.656722],[9.1737059,47.6568072],[9.1736503,47.6567788]]]}, "properties": {"osm_id": 127873693, "osm_type": "ways_poly", "amenity": "restaurant", "name": "Eumel"}},{"type": "Feature", "geometry": {"type":"Polygon","coordinates":[[[9.1773434,47.6607597],[9.1773723,47.6606462],[9.1774123,47.6606506],[9.1774131,47.6606479],[9.1775512,47.66067],[9.1775369,47.6607512],[9.1775473,47.6607566],[9.1775391,47.6607876],[9.1773434,47.6607597]]]}, "properties": {"osm_id": 121962964, "osm_type": "ways_poly", "amenity": "restaurant", "name": "La Piazza"}},{"type": "Feature", "geometry": {"type":"Polygon","coordinates":[[[9.1715234,47.6640531],[9.1716502,47.6640278],[9.1717069,47.6641394],[9.1716118,47.6641581],[9.1716005,47.664132],[9.1715601,47.6641398],[9.1715234,47.6640531]]]}, "properties": {"osm_id": 121907798, "osm_type": "ways_poly", "amenity": "restaurant", "name": "Restaurant Wallgut"}},{"type": "Feature", "geometry": {"type":"Polygon","coordinates":[[[9.1650092,47.6691032],[9.1652788,47.6690886],[9.1652645,47.6689692],[9.1653355,47.6689654],[9.1653384,47.6689891],[9.165347,47.6689887],[9.1653519,47.6690298],[9.1654217,47.669026],[9.1654429,47.6692037],[9.16535,47.6692087],[9.1653495,47.6692044],[9.1652954,47.6692073],[9.165291,47.6691707],[9.1650191,47.6691854],[9.1650092,47.6691032]]]}, "properties": {"osm_id": 124736397, "osm_type": "ways_poly", "amenity": "restaurant", "name": "Marinekameradschaft Konstanz e.V."}},{"type": "Feature", "geometry": {"type":"Polygon","coordinates":[[[9.1741089,47.6620831],[9.1743034,47.662036],[9.1743287,47.6620833],[9.1743608,47.6620755],[9.1743674,47.662089],[9.1743742,47.6621014],[9.1743213,47.6621127],[9.1743095,47.6620908],[9.1742679,47.6621009],[9.1742792,47.662122],[9.1742499,47.6621291],[9.1741469,47.6621541],[9.1741089,47.6620831]]]}, "properties": {"osm_id": 122778795, "osm_type": "ways_poly", "amenity": "cafe", "name": "Schuler's Café"}},{"type": "Feature", "geometry": {"type":"Polygon","coordinates":[[[9.1604947,47.6633131],[9.1605068,47.6632216],[9.1606087,47.6632198],[9.160609,47.6632222],[9.1607594,47.6632171],[9.1607612,47.6632699],[9.1607748,47.6632699],[9.1607751,47.6632839],[9.1607645,47.6632837],[9.1607652,47.6633089],[9.1606481,47.6633108],[9.1606491,47.6633341],[9.1605001,47.6633374],[9.1604998,47.6633131],[9.1604947,47.6633131]]]}, "properties": {"osm_id": 119116795, "osm_type": "ways_poly", "amenity": "restaurant", "name": "Papageno"}},{"type": "Feature", "geometry": {"type":"Polygon","coordinates":[[[9.1749765,47.6662646],[9.1750923,47.6662056],[9.1750958,47.6662038],[9.1751132,47.6662177],[9.1750949,47.666227],[9.1751717,47.6662926],[9.1752146,47.6662634],[9.1753025,47.6663304],[9.1752509,47.6663656],[9.1752476,47.6663643],[9.1751075,47.6664694],[9.1751098,47.6664712],[9.1751004,47.666478],[9.1750062,47.6664241],[9.1750899,47.6663574],[9.1749765,47.6662646]]]}, "properties": {"osm_id": 122855158, "osm_type": "ways_poly", "amenity": "restaurant", "name": "Löhlinbad"}},{"type": "Feature", "geometry": {"type":"Polygon","coordinates":[[[9.17934,47.6616059],[9.1793429,47.6615811],[9.1793586,47.6615683],[9.17939,47.6615651],[9.1794308,47.661566],[9.179496,47.6615855],[9.1795304,47.6616122],[9.1795476,47.6616444],[9.1795404,47.6616679],[9.1795208,47.6616824],[9.1794827,47.6616865],[9.1794469,47.6616813],[9.1794155,47.6616705],[9.1793805,47.661653],[9.1793542,47.6616322],[9.17934,47.6616059]]]}, "properties": {"osm_id": 30938375, "osm_type": "ways_poly", "amenity": "restaurant", "name": "Pavillon am See"}},{"type": "Feature", "geometry": {"type":"Polygon","coordinates":[[[9.1779715,47.6593686],[9.178117,47.6593512],[9.1781549,47.6594943],[9.1780094,47.6595118],[9.1779715,47.6593686]]]}, "properties": {"osm_id": 42801764, "osm_type": "ways_poly", "amenity": "cafe", "name": "Eiscafe am Hafen"}},{"type": "Feature", "geometry": {"type":"Polygon","coordinates":[[[9.1734626,47.6577074],[9.1736021,47.6575757],[9.1737716,47.6576661],[9.1739015,47.657736],[9.1739478,47.6577389],[9.1741317,47.6578361],[9.1740596,47.6579069],[9.1740565,47.6579055],[9.1739137,47.6578301],[9.173688,47.6577118],[9.1736476,47.6577474],[9.1736234,47.6577686],[9.1735873,47.6577518],[9.1735068,47.6577148],[9.1734626,47.6577074]]]}, "properties": {"osm_id": 126987452, "osm_type": "ways_poly", "amenity": "restaurant", "name": "Asia Town by Thang Long"}},{"type": "Feature", "geometry": {"type":"Polygon","coordinates":[[[9.1775004,47.6612238],[9.1775049,47.6611614],[9.1775072,47.6611296],[9.177511,47.6610762],[9.1776742,47.6610815],[9.1776635,47.6612291],[9.1775775,47.6612263],[9.1775004,47.6612238]]]}, "properties": {"osm_id": 107803075, "osm_type": "ways_poly", "amenity": "restaurant", "name": "Six Senses"}},{"type": "Feature", "geometry": {"type":"Polygon","coordinates":[[[9.1704197,47.6577033],[9.1704221,47.6576926],[9.1704374,47.6576936],[9.1706908,47.6577165],[9.1706729,47.6577854],[9.1706693,47.657786],[9.1704231,47.6577666],[9.1704317,47.6577265],[9.1704363,47.6577047],[9.1704197,47.6577033]]]}, "properties": {"osm_id": 126794673, "osm_type": "ways_poly", "amenity": "fast_food", "name": "Kuyu-Kebab"}},{"type": "Feature", "geometry": {"type":"Polygon","coordinates":[[[9.1716411,47.6600173],[9.1717085,47.659989],[9.1717337,47.6600194],[9.1717285,47.6600212],[9.1717664,47.6600682],[9.171772,47.660066],[9.1718239,47.6601277],[9.1717438,47.6601625],[9.1716962,47.6600956],[9.1717032,47.6600934],[9.1716411,47.6600173]]]}, "properties": {"osm_id": 121911339, "osm_type": "ways_poly", "amenity": "restaurant", "name": "Mestiza"}},{"type": "Feature", "geometry": {"type":"Polygon","coordinates":[[[9.1734076,47.6638639],[9.1735178,47.6638391],[9.1735562,47.6639145],[9.1734442,47.6639383],[9.1734076,47.6638639]]]}, "properties": {"osm_id": 145181441, "osm_type": "ways_poly", "amenity": "restaurant", "name": "La Grotta"}},{"type": "Feature", "geometry": {"type":"Polygon","coordinates":[[[9.1646917,47.6690571],[9.1648823,47.6690442],[9.1648923,47.6691169],[9.1647002,47.6691273],[9.1646917,47.6690571]]]}, "properties": {"osm_id": 124736384, "osm_type": "ways_poly", "amenity": "restaurant", "name": "Natur- & Freizeitverein Konstanz e.V."}},{"type": "Feature", "geometry": {"type":"Polygon","coordinates":[[[9.1693579,47.6584274],[9.1694556,47.6584183],[9.1694693,47.658485],[9.1693715,47.6584941],[9.1693579,47.6584274]]]}, "properties": {"osm_id": 126794656, "osm_type": "ways_poly", "amenity": "fast_food", "name": "Imbiss am Döbele"}},{"type": "Feature", "geometry": {"type":"Polygon","coordinates":[[[9.1737248,47.6635626],[9.1737923,47.6635587],[9.1737918,47.6635547],[9.1737997,47.6635542],[9.1738002,47.6635581],[9.1739544,47.663549],[9.1739637,47.6636207],[9.1738051,47.66363],[9.1738055,47.6636335],[9.1737346,47.6636376],[9.1737248,47.6635626]]]}, "properties": {"osm_id": 120838352, "osm_type": "ways_poly", "amenity": "pub", "name": "Schwarze Katz"}},{"type": "Feature", "geometry": {"type":"Polygon","coordinates":[[[9.1751314,47.6598568],[9.1751998,47.659853],[9.1752224,47.6599712],[9.1751543,47.6599782],[9.1751438,47.6599233],[9.1751416,47.659912],[9.1751368,47.6598858],[9.1751314,47.6598568]]]}, "properties": {"osm_id": 1178313777, "osm_type": "ways_poly", "amenity": "cafe", "name": "Rosgartencafé"}},{"type": "Feature", "geometry": {"type":"Polygon","coordinates":[[[9.1768237,47.6608022],[9.1768564,47.6607042],[9.1769,47.6605724],[9.1770453,47.6605924],[9.1770439,47.6605958],[9.1769365,47.6608193],[9.1768237,47.6608022]]]}, "properties": {"osm_id": 117002931, "osm_type": "ways_poly", "amenity": "cafe", "name": "Pano"}},{"type": "Feature", "geometry": {"type":"Polygon","coordinates":[[[9.1810468,47.6559844],[9.1810853,47.655911],[9.1813866,47.6559828],[9.1813481,47.6560562],[9.1810468,47.6559844]]]}, "properties": {"osm_id": 1082560567, "osm_type": "ways_poly", "amenity": "bar", "name": "See Oase"}},{"type": "Feature", "geometry": {"type":"Polygon","coordinates":[[[9.1722177,47.6612332],[9.172237,47.6612285],[9.1722389,47.661232],[9.1723092,47.6612119],[9.1723776,47.6613016],[9.1722827,47.661333],[9.1722308,47.661245],[9.1722261,47.6612465],[9.1722177,47.6612332]]]}, "properties": {"osm_id": 120838338, "osm_type": "ways_poly", "amenity": "restaurant", "name": "Dischinger"}},{"type": "Feature", "geometry": {"type":"Polygon","coordinates":[[[9.1727364,47.6608692],[9.1728109,47.6608401],[9.1728957,47.6609523],[9.1728227,47.660979],[9.1727364,47.6608692]]]}, "properties": {"osm_id": 122721265, "osm_type": "ways_poly", "amenity": "cafe", "name": "Club 107"}},{"type": "Feature", "geometry": {"type":"Polygon","coordinates":[[[9.1726009,47.6608416],[9.1727054,47.6608064],[9.1727171,47.6608214],[9.1727227,47.6608193],[9.1727471,47.6608502],[9.172728,47.6608571],[9.1727364,47.6608692],[9.1728227,47.660979],[9.1727168,47.6610183],[9.1726349,47.6608947],[9.1726232,47.6608773],[9.172611,47.66086],[9.1726133,47.6608592],[9.1726021,47.6608433],[9.1726009,47.6608416]],[[9.1726793,47.6608402],[9.1726993,47.6608667],[9.1727153,47.6608612],[9.1726953,47.6608348],[9.1726793,47.6608402]]]}, "properties": {"osm_id": 10838040, "osm_type": "relations", "amenity": "restaurant", "name": "Sitara"}}]}